{"type": "FeatureCollection", "features": [ {"type": "Feature", "properties": {"norad_id": 39122, "name": "EUTELSAT 117 WEST A", "group": "eutelsat", "lat": -0.03001581679944619, "lon": -97.10242226990808, "alt_km": 35775.06518846261, "timestamp": "2025-12-25T19:00:39.019426+00:00", "meta": {"OBJECT_NAME": "EUTELSAT 117 WEST A", "OBJECT_ID": "2013-012A", "EPOCH": "2025-12-25T06:10:38.820000", "MEAN_MOTION": 1.00270796, "ECCENTRICITY": 0.00027534, "INCLINATION": 0.0187, "RA_OF_ASC_NODE": 321.098, "ARG_OF_PERICENTER": 316.4443, "MEAN_ANOMALY": 152.344, "EPHEMERIS_TYPE": 0, "CLASSIFICATION_TYPE": "U", "NORAD_CAT_ID": 39122, "ELEMENT_SET_NO": 999, "REV_AT_EPOCH": 4668, "BSTAR": 0, "MEAN_MOTION_DOT": 8e-08, "MEAN_MOTION_DDOT": 0}, "tle": {"line1": "1 39122U 13012A   25359.25739375  .00000008  00000+0  00000+0 0  9995", "line2": "2 39122   0.0187 321.0980 0002753 316.4443 152.3440  1.00270796 46685"}}, "geometry": {"type": "Point", "coordinates": [-97.10242226990808, -0.03001581679944619]}}, {"type": "Feature", "properties": {"norad_id": 39163, "name": "EUTELSAT 7B", "group": "eutelsat", "lat": 0.025528752825355706, "lon": 26.74328627014749, "alt_km": 35777.69608231175, "timestamp": "2025-12-25T19:00:39.019438+00:00", "meta": {"OBJECT_NAME": "EUTELSAT 7B", "OBJECT_ID": "2013-022A", "EPOCH": "2025-12-24T23:24:19.351872", "MEAN_MOTION": 1.00271638, "ECCENTRICITY": 0.00046087, "INCLINATION": 0.0657, "RA_OF_ASC_NODE": 9.0547, "ARG_OF_PERICENTER": 313.3925, "MEAN_ANOMALY": 129.3681, "EPHEMERIS_TYPE": 0, "CLASSIFICATION_TYPE": "U", "NORAD_CAT_ID": 39163, "ELEMENT_SET_NO": 999, "REV_AT_EPOCH": 4620, "BSTAR": 0, "MEAN_MOTION_DOT": 6.9e-07, "MEAN_MOTION_DDOT": 0}, "tle": {"line1": "1 39163U 13022A   25358.97522398  .00000069  00000+0  00000+0 0  9991", "line2": "2 39163   0.0657   9.0547 0004608 313.3925 129.3681  1.00271638 46201"}}, "geometry": {"type": "Point", "coordinates": [26.74328627014749, 0.025528752825355706]}}, {"type": "Feature", "properties": {"norad_id": 39612, "name": "EXPRESS-AT1", "group": "eutelsat", "lat": 0.01466205386404626, "lon": 75.69115133404138, "alt_km": 35783.430932973904, "timestamp": "2025-12-25T19:00:39.019456+00:00", "meta": {"OBJECT_NAME": "EXPRESS-AT1", "OBJECT_ID": "2014-010A", "EPOCH": "2025-12-25T01:46:38.582688", "MEAN_MOTION": 1.0027131, "ECCENTRICITY": 8.829e-05, "INCLINATION": 0.0118, "RA_OF_ASC_NODE": 294.5388, "ARG_OF_PERICENTER": 184.5356, "MEAN_ANOMALY": 57.4217, "EPHEMERIS_TYPE": 0, "CLASSIFICATION_TYPE": "U", "NORAD_CAT_ID": 39612, "ELEMENT_SET_NO": 999, "REV_AT_EPOCH": 4307, "BSTAR": 0, "MEAN_MOTION_DOT": 1e-06, "MEAN_MOTION_DDOT": 0}, "tle": {"line1": "1 39612U 14010A   25359.07405767  .00000100  00000+0  00000+0 0  9996", "line2": "2 39612   0.0118 294.5388 0000882 184.5356  57.4217  1.00271310 43077"}}, "geometry": {"type": "Point", "coordinates": [75.69115133404138, 0.01466205386404626]}}, {"type": "Feature", "properties": {"norad_id": 39613, "name": "EXPRESS-AT2", "group": "eutelsat", "lat": -0.002079613189730748, "lon": 159.54791123048025, "alt_km": 35788.76195822808, "timestamp": "2025-12-25T19:00:39.019469+00:00", "meta": {"OBJECT_NAME": "EXPRESS-AT2", "OBJECT_ID": "2014-010B", "EPOCH": "2025-12-25T05:13:13.086912", "MEAN_MOTION": 1.00271893, "ECCENTRICITY": 0.00015864, "INCLINATION": 0.0164, "RA_OF_ASC_NODE": 293.9073, "ARG_OF_PERICENTER": 338.8079, "MEAN_ANOMALY": 39.4318, "EPHEMERIS_TYPE": 0, "CLASSIFICATION_TYPE": "U", "NORAD_CAT_ID": 39613, "ELEMENT_SET_NO": 999, "REV_AT_EPOCH": 4275, "BSTAR": 0, "MEAN_MOTION_DOT": -2.6e-06, "MEAN_MOTION_DDOT": 0}, "tle": {"line1": "1 39613U 14010B   25359.21751258 -.00000260  00000+0  00000+0 0  9990", "line2": "2 39613   0.0164 293.9073 0001586 338.8079  39.4318  1.00271893 42753"}}, "geometry": {"type": "Point", "coordinates": [159.54791123048025, -0.002079613189730748]}}, {"type": "Feature", "properties": {"norad_id": 39773, "name": "EUTELSAT 3B", "group": "eutelsat", "lat": 0.037981503931363916, "lon": 22.826784667946875, "alt_km": 35801.66842443033, "timestamp": "2025-12-25T19:00:39.019481+00:00", "meta": {"OBJECT_NAME": "EUTELSAT 3B", "OBJECT_ID": "2014-030A", "EPOCH": "2025-12-25T06:13:55.124256", "MEAN_MOTION": 1.00270181, "ECCENTRICITY": 0.00042607, "INCLINATION": 0.0607, "RA_OF_ASC_NODE": 349.849, "ARG_OF_PERICENTER": 245.1418, "MEAN_ANOMALY": 315.612, "EPHEMERIS_TYPE": 0, "CLASSIFICATION_TYPE": "U", "NORAD_CAT_ID": 39773, "ELEMENT_SET_NO": 999, "REV_AT_EPOCH": 4232, "BSTAR": 0, "MEAN_MOTION_DOT": 4.1e-07, "MEAN_MOTION_DDOT": 0}, "tle": {"line1": "1 39773U 14030A   25359.25966579  .00000041  00000+0  00000+0 0  9993", "line2": "2 39773   0.0607 349.8490 0004260 245.1418 315.6120  1.00270181 42327"}}, "geometry": {"type": "Point", "coordinates": [22.826784667946875, 0.037981503931363916]}}, {"type": "Feature", "properties": {"norad_id": 40425, "name": "EUTELSAT 115 WEST B", "group": "eutelsat", "lat": 0.022612788660424255, "lon": -95.20977749628335, "alt_km": 35786.34939295259, "timestamp": "2025-12-25T19:00:39.019492+00:00", "meta": {"OBJECT_NAME": "EUTELSAT 115 WEST B", "OBJECT_ID": "2015-010B", "EPOCH": "2025-12-24T09:59:58.343136", "MEAN_MOTION": 1.00271259, "ECCENTRICITY": 1.435e-05, "INCLINATION": 0.0435, "RA_OF_ASC_NODE": 188.915, "ARG_OF_PERICENTER": 182.2118, "MEAN_ANOMALY": 117.1483, "EPHEMERIS_TYPE": 0, "CLASSIFICATION_TYPE": "U", "NORAD_CAT_ID": 40425, "ELEMENT_SET_NO": 999, "REV_AT_EPOCH": 3964, "BSTAR": 0, "MEAN_MOTION_DOT": -4e-08, "MEAN_MOTION_DDOT": 0}, "tle": {"line1": "1 40425U 15010B   25358.41664749 -.00000004  00000+0  00000+0 0  9999", "line2": "2 40425   0.0435 188.9150 0000143 182.2118 117.1483  1.00271259 39646"}}, "geometry": {"type": "Point", "coordinates": [-95.20977749628335, 0.022612788660424255]}}, {"type": "Feature", "properties": {"norad_id": 40875, "name": "EUTELSAT 8 WEST B", "group": "eutelsat", "lat": 0.00314239918769316, "lon": 11.74811732867538, "alt_km": 35788.36194769992, "timestamp": "2025-12-25T19:00:39.019505+00:00", "meta": {"OBJECT_NAME": "EUTELSAT 8 WEST B", "OBJECT_ID": "2015-039B", "EPOCH": "2025-12-25T06:10:40.433952", "MEAN_MOTION": 1.00271322, "ECCENTRICITY": 0.000422, "INCLINATION": 0.0645, "RA_OF_ASC_NODE": 9.1951, "ARG_OF_PERICENTER": 265.5835, "MEAN_ANOMALY": 263.9078, "EPHEMERIS_TYPE": 0, "CLASSIFICATION_TYPE": "U", "NORAD_CAT_ID": 40875, "ELEMENT_SET_NO": 999, "REV_AT_EPOCH": 3791, "BSTAR": 0, "MEAN_MOTION_DOT": -4.4e-07, "MEAN_MOTION_DDOT": 0}, "tle": {"line1": "1 40875U 15039B   25359.25741243 -.00000044  00000+0  00000+0 0  9991", "line2": "2 40875   0.0645   9.1951 0004220 265.5835 263.9078  1.00271322 37911"}}, "geometry": {"type": "Point", "coordinates": [11.74811732867538, 0.00314239918769316]}}, {"type": "Feature", "properties": {"norad_id": 41310, "name": "EUTELSAT 9B", "group": "eutelsat", "lat": -0.0009933019974894418, "lon": 28.77184657528324, "alt_km": 35794.30588868721, "timestamp": "2025-12-25T19:00:39.019517+00:00", "meta": {"OBJECT_NAME": "EUTELSAT 9B", "OBJECT_ID": "2016-005A", "EPOCH": "2025-12-24T06:17:44.244960", "MEAN_MOTION": 1.00272813, "ECCENTRICITY": 0.00045278, "INCLINATION": 0.023, "RA_OF_ASC_NODE": 38.5865, "ARG_OF_PERICENTER": 233.3148, "MEAN_ANOMALY": 284.5874, "EPHEMERIS_TYPE": 0, "CLASSIFICATION_TYPE": "U", "NORAD_CAT_ID": 41310, "ELEMENT_SET_NO": 999, "REV_AT_EPOCH": 3636, "BSTAR": 0, "MEAN_MOTION_DOT": 8.3e-07, "MEAN_MOTION_DDOT": 0}, "tle": {"line1": "1 41310U 16005A   25358.26231765  .00000083  00000+0  00000+0 0  9995", "line2": "2 41310   0.0230  38.5865 0004527 233.3148 284.5874  1.00272813 36363"}}, "geometry": {"type": "Point", "coordinates": [28.77184657528324, -0.0009933019974894418]}}, {"type": "Feature", "properties": {"norad_id": 41382, "name": "EUTELSAT 65 WEST A", "group": "eutelsat", "lat": -0.03831473250376343, "lon": -45.4609934522431, "alt_km": 35778.460559141335, "timestamp": "2025-12-25T19:00:39.019530+00:00", "meta": {"OBJECT_NAME": "EUTELSAT 65 WEST A", "OBJECT_ID": "2016-014A", "EPOCH": "2025-12-25T00:39:29.297088", "MEAN_MOTION": 1.00271925, "ECCENTRICITY": 0.00022825, "INCLINATION": 0.0484, "RA_OF_ASC_NODE": 343.8685, "ARG_OF_PERICENTER": 293.2062, "MEAN_ANOMALY": 121.4109, "EPHEMERIS_TYPE": 0, "CLASSIFICATION_TYPE": "U", "NORAD_CAT_ID": 41382, "ELEMENT_SET_NO": 999, "REV_AT_EPOCH": 3578, "BSTAR": 0, "MEAN_MOTION_DOT": -2.55e-06, "MEAN_MOTION_DDOT": 0}, "tle": {"line1": "1 41382U 16014A   25359.02742242 -.00000255  00000+0  00000+0 0  9998", "line2": "2 41382   0.0484 343.8685 0002282 293.2062 121.4109  1.00271925 35789"}}, "geometry": {"type": "Point", "coordinates": [-45.4609934522431, -0.03831473250376343]}}, {"type": "Feature", "properties": {"norad_id": 41589, "name": "EUTELSAT 117 WEST B", "group": "eutelsat", "lat": 0.005080142888534092, "lon": -97.28371537903526, "alt_km": 35781.99908441957, "timestamp": "2025-12-25T19:00:39.019542+00:00", "meta": {"OBJECT_NAME": "EUTELSAT 117 WEST B", "OBJECT_ID": "2016-038B", "EPOCH": "2025-12-24T09:59:01.014144", "MEAN_MOTION": 1.00277873, "ECCENTRICITY": 6.384e-05, "INCLINATION": 0.0094, "RA_OF_ASC_NODE": 154.0765, "ARG_OF_PERICENTER": 139.5473, "MEAN_ANOMALY": 192.3072, "EPHEMERIS_TYPE": 0, "CLASSIFICATION_TYPE": "U", "NORAD_CAT_ID": 41589, "ELEMENT_SET_NO": 999, "REV_AT_EPOCH": 3491, "BSTAR": 0, "MEAN_MOTION_DOT": 9e-08, "MEAN_MOTION_DDOT": 0}, "tle": {"line1": "1 41589U 16038B   25358.41598396  .00000009  00000+0  00000+0 0  9990", "line2": "2 41589   0.0094 154.0765 0000638 139.5473 192.3072  1.00277873 34915"}}, "geometry": {"type": "Point", "coordinates": [-97.28371537903526, 0.005080142888534092]}}]}